[
  {
    "COMMENT": "GENERATED VIA SPACETRACK.ORG API",
    "ORIGINATOR": "18 SPCS",
    "NORAD_CAT_ID": "27421",
    "OBJECT_NAME": "SPOT 5",
    "OBJECT_TYPE": "PAYLOAD",
    "CLASSIFICATION_TYPE": "U",
    "INTLDES": "02021A",
    "EPOCH": "2023-08-09 09:54:46",
    "EPOCH_MICROSECONDS": "506528",
    "MEAN_MOTION": "14.52711233",
    "ECCENTRICITY": "0.0132411",
    "INCLINATION": "98.1361",
    "RA_OF_ASC_NODE": "282.8528",
    "ARG_OF_PERICENTER": "269.4591",
    "MEAN_ANOMALY": "89.1432",
    "EPHEMERIS_TYPE": "0",
    "ELEMENT_SET_NO": "999",
    "REV_AT_EPOCH": "11136",
    "BSTAR": "0.00010244",
    "MEAN_MOTION_DOT": "0.00000419",
    "MEAN_MOTION_DDOT": "0",
    "FILE": "3975866",
    "TLE_LINE0": "0 SPOT 5",
    "TLE_LINE1": "1 27421U 02021A   23221.41303827  .00000419  00000-0  10244-3 0  9997",
    "TLE_LINE2": "2 27421  98.1361 282.8528 0132411 269.4591  89.1432 14.52711233111367",
    "OBJECT_ID": "2002-021A",
    "OBJECT_NUMBER": "27421",
    "SEMIMAJOR_AXIS": "7094.944",
    "PERIOD": "99.125",
    "APOGEE": "810.754",
    "PERIGEE": "622.864",
    "DECAYED": "0"
  },
  {
    "COMMENT": "GENERATED VIA SPACETRACK.ORG API",
    "ORIGINATOR": "18 SPCS",
    "NORAD_CAT_ID": "27421",
    "OBJECT_NAME": "SPOT 5",
    "OBJECT_TYPE": "PAYLOAD",
    "CLASSIFICATION_TYPE": "U",
    "INTLDES": "02021A",
    "EPOCH": "2023-08-09 14:52:19",
    "EPOCH_MICROSECONDS": "552800",
    "MEAN_MOTION": "14.52711271",
    "ECCENTRICITY": "0.0132412",
    "INCLINATION": "98.1361",
    "RA_OF_ASC_NODE": "283.0533",
    "ARG_OF_PERICENTER": "268.8137",
    "MEAN_ANOMALY": "89.7887",
    "EPHEMERIS_TYPE": "0",
    "ELEMENT_SET_NO": "999",
    "REV_AT_EPOCH": "11139",
    "BSTAR": "0.000095752",
    "MEAN_MOTION_DOT": "0.00000389",
    "MEAN_MOTION_DDOT": "0",
    "FILE": "3976151",
    "TLE_LINE0": "0 SPOT 5",
    "TLE_LINE1": "1 27421U 02021A   23221.61967075  .00000389  00000-0  95752-4 0  9994",
    "TLE_LINE2": "2 27421  98.1361 283.0533 0132412 268.8137  89.7887 14.52711271111391",
    "OBJECT_ID": "2002-021A",
    "OBJECT_NUMBER": "27421",
    "SEMIMAJOR_AXIS": "7094.944",
    "PERIOD": "99.125",
    "APOGEE": "810.755",
    "PERIGEE": "622.863",
    "DECAYED": "0"
  },
  {
    "COMMENT": "GENERATED VIA SPACETRACK.ORG API",
    "ORIGINATOR": "18 SPCS",
    "NORAD_CAT_ID": "27421",
    "OBJECT_NAME": "SPOT 5",
    "OBJECT_TYPE": "PAYLOAD",
    "CLASSIFICATION_TYPE": "U",
    "INTLDES": "02021A",
    "EPOCH": "2023-08-09 21:29:03",
    "EPOCH_MICROSECONDS": "609024",
    "MEAN_MOTION": "14.52711522",
    "ECCENTRICITY": "0.0132413",
    "INCLINATION": "98.136",
    "RA_OF_ASC_NODE": "283.3207",
    "ARG_OF_PERICENTER": "267.9554",
    "MEAN_ANOMALY": "90.6475",
    "EPHEMERIS_TYPE": "0",
    "ELEMENT_SET_NO": "999",
    "REV_AT_EPOCH": "11143",
    "BSTAR": "0.000095735",
    "MEAN_MOTION_DOT": "0.00000389",
    "MEAN_MOTION_DDOT": "0",
    "FILE": "3976383",
    "TLE_LINE0": "0 SPOT 5",
    "TLE_LINE1": "1 27421U 02021A   23221.89518066  .00000389  00000-0  95735-4 0  9997",
    "TLE_LINE2": "2 27421  98.1360 283.3207 0132413 267.9554  90.6475 14.52711522111433",
    "OBJECT_ID": "2002-021A",
    "OBJECT_NUMBER": "27421",
    "SEMIMAJOR_AXIS": "7094.943",
    "PERIOD": "99.125",
    "APOGEE": "810.754",
    "PERIGEE": "622.862",
    "DECAYED": "0"
  },
  {
    "COMMENT": "GENERATED VIA SPACETRACK.ORG API",
    "ORIGINATOR": "18 SPCS",
    "NORAD_CAT_ID": "27421",
    "OBJECT_NAME": "SPOT 5",
    "OBJECT_TYPE": "PAYLOAD",
    "CLASSIFICATION_TYPE": "U",
    "INTLDES": "02021A",
    "EPOCH": "2023-08-10 10:42:31",
    "EPOCH_MICROSECONDS": "740480",
    "MEAN_MOTION": "14.52711866",
    "ECCENTRICITY": "0.0132408",
    "INCLINATION": "98.136",
    "RA_OF_ASC_NODE": "283.8554",
    "ARG_OF_PERICENTER": "266.2354",
    "MEAN_ANOMALY": "92.3694",
    "EPHEMERIS_TYPE": "0",
    "ELEMENT_SET_NO": "999",
    "REV_AT_EPOCH": "11151",
    "BSTAR": "0.000089076",
    "MEAN_MOTION_DOT": "0.00000358",
    "MEAN_MOTION_DDOT": "0",
    "FILE": "3976718",
    "TLE_LINE0": "0 SPOT 5",
    "TLE_LINE1": "1 27421U 02021A   23222.44620070  .00000358  00000-0  89076-4 0  9995",
    "TLE_LINE2": "2 27421  98.1360 283.8554 0132408 266.2354  92.3694 14.52711866111519",
    "OBJECT_ID": "2002-021A",
    "OBJECT_NUMBER": "27421",
    "SEMIMAJOR_AXIS": "7094.942",
    "PERIOD": "99.125",
    "APOGEE": "810.750",
    "PERIGEE": "622.864",
    "DECAYED": "0"
  },
  {
    "COMMENT": "GENERATED VIA SPACETRACK.ORG API",
    "ORIGINATOR": "18 SPCS",
    "NORAD_CAT_ID": "27421",
    "OBJECT_NAME": "SPOT 5",
    "OBJECT_TYPE": "PAYLOAD",
    "CLASSIFICATION_TYPE": "U",
    "INTLDES": "02021A",
    "EPOCH": "2023-08-10 18:58:26",
    "EPOCH_MICROSECONDS": "824800",
    "MEAN_MOTION": "14.52712121",
    "ECCENTRICITY": "0.0132411",
    "INCLINATION": "98.1359",
    "RA_OF_ASC_NODE": "284.1896",
    "ARG_OF_PERICENTER": "265.1617",
    "MEAN_ANOMALY": "93.445",
    "EPHEMERIS_TYPE": "0",
    "ELEMENT_SET_NO": "999",
    "REV_AT_EPOCH": "11156",
    "BSTAR": "0.000086729",
    "MEAN_MOTION_DOT": "0.00000347",
    "MEAN_MOTION_DDOT": "0",
    "FILE": "3977101",
    "TLE_LINE0": "0 SPOT 5",
    "TLE_LINE1": "1 27421U 02021A   23222.79058825  .00000347  00000-0  86729-4 0  9996",
    "TLE_LINE2": "2 27421  98.1359 284.1896 0132411 265.1617  93.4450 14.52712121111566",
    "OBJECT_ID": "2002-021A",
    "OBJECT_NUMBER": "27421",
    "SEMIMAJOR_AXIS": "7094.941",
    "PERIOD": "99.125",
    "APOGEE": "810.751",
    "PERIGEE": "622.861",
    "DECAYED": "0"
  },
  {
    "COMMENT": "GENERATED VIA SPACETRACK.ORG API",
    "ORIGINATOR": "18 SPCS",
    "NORAD_CAT_ID": "27421",
    "OBJECT_NAME": "SPOT 5",
    "OBJECT_TYPE": "PAYLOAD",
    "CLASSIFICATION_TYPE": "U",
    "INTLDES": "02021A",
    "EPOCH": "2023-08-10 22:16:48",
    "EPOCH_MICROSECONDS": "856800",
    "MEAN_MOTION": "14.52712267",
    "ECCENTRICITY": "0.0132414",
    "INCLINATION": "98.1359",
    "RA_OF_ASC_NODE": "284.3233",
    "ARG_OF_PERICENTER": "264.731",
    "MEAN_ANOMALY": "93.8766",
    "EPHEMERIS_TYPE": "0",
    "ELEMENT_SET_NO": "999",
    "REV_AT_EPOCH": "11158",
    "BSTAR": "0.000087878",
    "MEAN_MOTION_DOT": "0.00000352",
    "MEAN_MOTION_DDOT": "0",
    "FILE": "3977342",
    "TLE_LINE0": "0 SPOT 5",
    "TLE_LINE1": "1 27421U 02021A   23222.92834325  .00000352  00000-0  87878-4 0  9990",
    "TLE_LINE2": "2 27421  98.1359 284.3233 0132414 264.7310  93.8766 14.52712267111588",
    "OBJECT_ID": "2002-021A",
    "OBJECT_NUMBER": "27421",
    "SEMIMAJOR_AXIS": "7094.941",
    "PERIOD": "99.125",
    "APOGEE": "810.753",
    "PERIGEE": "622.859",
    "DECAYED": "0"
  },
  {
    "COMMENT": "GENERATED VIA SPACETRACK.ORG API",
    "ORIGINATOR": "18 SPCS",
    "NORAD_CAT_ID": "27421",
    "OBJECT_NAME": "SPOT 5",
    "OBJECT_TYPE": "PAYLOAD",
    "CLASSIFICATION_TYPE": "U",
    "INTLDES": "02021A",
    "EPOCH": "2023-08-11 09:51:05",
    "EPOCH_MICROSECONDS": "982624",
    "MEAN_MOTION": "14.52712571",
    "ECCENTRICITY": "0.0132424",
    "INCLINATION": "98.1359",
    "RA_OF_ASC_NODE": "284.7912",
    "ARG_OF_PERICENTER": "263.2263",
    "MEAN_ANOMALY": "95.385",
    "EPHEMERIS_TYPE": "0",
    "ELEMENT_SET_NO": "999",
    "REV_AT_EPOCH": "11165",
    "BSTAR": "0.000083428",
    "MEAN_MOTION_DOT": "0.00000332",
    "MEAN_MOTION_DDOT": "0",
    "FILE": "3977577",
    "TLE_LINE0": "0 SPOT 5",
    "TLE_LINE1": "1 27421U 02021A   23223.41048591  .00000332  00000-0  83428-4 0  9992",
    "TLE_LINE2": "2 27421  98.1359 284.7912 0132424 263.2263  95.3850 14.52712571111655",
    "OBJECT_ID": "2002-021A",
    "OBJECT_NUMBER": "27421",
    "SEMIMAJOR_AXIS": "7094.940",
    "PERIOD": "99.125",
    "APOGEE": "810.759",
    "PERIGEE": "622.851",
    "DECAYED": "0"
  },
  {
    "COMMENT": "GENERATED VIA SPACETRACK.ORG API",
    "ORIGINATOR": "18 SPCS",
    "NORAD_CAT_ID": "27421",
    "OBJECT_NAME": "SPOT 5",
    "OBJECT_TYPE": "PAYLOAD",
    "CLASSIFICATION_TYPE": "U",
    "INTLDES": "02021A",
    "EPOCH": "2023-08-11 18:07:01",
    "EPOCH_MICROSECONDS": "73856",
    "MEAN_MOTION": "14.52712993",
    "ECCENTRICITY": "0.0132429",
    "INCLINATION": "98.1359",
    "RA_OF_ASC_NODE": "285.1254",
    "ARG_OF_PERICENTER": "262.1529",
    "MEAN_ANOMALY": "96.4617",
    "EPHEMERIS_TYPE": "0",
    "ELEMENT_SET_NO": "999",
    "REV_AT_EPOCH": "11170",
    "BSTAR": "0.000088545",
    "MEAN_MOTION_DOT": "0.00000356",
    "MEAN_MOTION_DDOT": "0",
    "FILE": "3977900",
    "TLE_LINE0": "0 SPOT 5",
    "TLE_LINE1": "1 27421U 02021A   23223.75487354  .00000356  00000-0  88545-4 0  9994",
    "TLE_LINE2": "2 27421  98.1359 285.1254 0132429 262.1529  96.4617 14.52712993111704",
    "OBJECT_ID": "2002-021A",
    "OBJECT_NUMBER": "27421",
    "SEMIMAJOR_AXIS": "7094.938",
    "PERIOD": "99.125",
    "APOGEE": "810.761",
    "PERIGEE": "622.846",
    "DECAYED": "0"
  },
  {
    "COMMENT": "GENERATED VIA SPACETRACK.ORG API",
    "ORIGINATOR": "18 SPCS",
    "NORAD_CAT_ID": "27421",
    "OBJECT_NAME": "SPOT 5",
    "OBJECT_TYPE": "PAYLOAD",
    "CLASSIFICATION_TYPE": "U",
    "INTLDES": "02021A",
    "EPOCH": "2023-08-12 02:22:56",
    "EPOCH_MICROSECONDS": "164224",
    "MEAN_MOTION": "14.52713298",
    "ECCENTRICITY": "0.0132444",
    "INCLINATION": "98.1359",
    "RA_OF_ASC_NODE": "285.4596",
    "ARG_OF_PERICENTER": "261.0767",
    "MEAN_ANOMALY": "97.5416",
    "EPHEMERIS_TYPE": "0",
    "ELEMENT_SET_NO": "999",
    "REV_AT_EPOCH": "11175",
    "BSTAR": "0.00008883",
    "MEAN_MOTION_DOT": "0.00000357",
    "MEAN_MOTION_DDOT": "0",
    "FILE": "3978161",
    "TLE_LINE0": "0 SPOT 5",
    "TLE_LINE1": "1 27421U 02021A   23224.09926116  .00000357  00000-0  88830-4 0  9994",
    "TLE_LINE2": "2 27421  98.1359 285.4596 0132444 261.0767  97.5416 14.52713298111758",
    "OBJECT_ID": "2002-021A",
    "OBJECT_NUMBER": "27421",
    "SEMIMAJOR_AXIS": "7094.937",
    "PERIOD": "99.125",
    "APOGEE": "810.771",
    "PERIGEE": "622.834",
    "DECAYED": "0"
  }
]